IRIDIUM 63              
1 25286U 98021B   25236.92858828  .00000345  00000+0  11055-3 0  9997
2 25286  86.3941  53.2713 0002315  87.8494 272.2968 14.36587062433714
IRIDIUM 69              
1 25319U 98026A   25236.93846401  .00000374  00000+0  11033-3 0  9992
2 25319  86.3920  66.3491 0003767 125.0401 235.1153 14.41020338432965
IRIDIUM 71              
1 25320U 98026B   25236.93642796  .00000365  00000+0  10689-3 0  9991
2 25320  86.3924  61.0285 0001839 152.7595 207.3702 14.41203175433495
IRIDIUM 73              
1 25344U 98032C   25236.91984562  .00000528  00000+0  12620-3 0  9990
2 25344  86.4439  17.6133 0002840  98.8059 261.3468 14.51779781440534
IRIDIUM 82              
1 25467U 98051A   25236.80104180  .00021931  00000+0  57365-3 0  9991
2 25467  86.3602  75.9103 0081210  36.9907 323.6904 15.35213819434479
